APRIZESAT 2             
1 28366U 04025A   26200.70910919  .00000084  00000+0  38867-4 0  9999
2 28366  98.1048   4.8532 0106225 151.3082 209.4007 14.38048796156313
SAUDICOMSAT 1           
1 28369U 04025D   26200.46415487  .00000125  00000+0  40110-4 0  9995
2 28369  98.5779 211.4679 0030882 285.3171  74.4613 14.55495185168820
SAUDICOMSAT 2           
1 28370U 04025E   26200.48911649  .00000081  00000+0  33022-4 0  9995
2 28370  98.6643 213.6488 0055902 160.7180 199.6146 14.49995556164783
APRIZESAT 1             
1 28372U 04025G   26200.82534323  .00000101  00000+0  36921-4 0  9999
2 28372  98.6310 212.4399 0045620  56.9777 303.5788 14.51793512166644
NANOSAT-1               
1 28493U 04049B   26200.81974986  .00000468  00000+0  68918-4 0  9998
2 28493  98.2317 338.2869 0004149 169.8351 190.2944 14.80215694160273
SAUDICOMSAT 7           
1 31119U 07012C   26200.73522750  .00000239  00000+0  51860-4 0  9993
2 31119  98.3802 175.5371 0057031  94.3867 266.3855 14.66139167 27209
SAUDICOMSAT 6           
1 31121U 07012E   26200.72326550  .00000146  00000+0  38031-4 0  9997
2 31121  98.4120 168.8502 0070717 224.7983 134.7495 14.62586414 24944
SAUDICOMSAT 5           
1 31124U 07012H   26200.45858860  .00000303  00000+0  60914-4 0  9994
2 31124  98.3514 175.9956 0047964  25.6366 334.7201 14.68195208 28333
SAUDICOMSAT 3           
1 31125U 07012J   26200.83930972  .00000354  00000+0  66242-4 0  9998
2 31125  98.3168 176.9302 0037985 310.2032  49.5851 14.70753557 29625
SAUDICOMSAT 4           
1 31127U 07012L   26200.88104979  .00000195  00000+0  45568-4 0  9996
2 31127  98.4008 174.1226 0063864 155.1714 205.2584 14.64537679 26072
APRIZESAT 4             
1 35684U 09041D   26200.75875928  .00000276  00000+0  39769-4 0  9993
2 35684  98.1400 276.7270 0042514 214.3888 145.4573 14.83917268916195
APRIZESAT 3             
1 35686U 09041F   26200.86664384  .00000126  00000+0  16715-4 0  9999
2 35686  98.2107 355.6652 0060697 320.2786  39.3997 14.96316274921268
S-NET D                 
1 43186U 18014G   26200.72083125  .00002151  00000+0  11249-3 0  9992
2 43186  97.5323 105.3092 0006222 265.0958  94.9565 15.16940248463696
S-NET B                 
1 43187U 18014H   26200.73292644  .00002321  00000+0  12119-3 0  9998
2 43187  97.5328 105.3088 0006887 259.0675 100.9783 15.16909877463696
S-NET A                 
1 43188U 18014J   26200.71952977  .00002122  00000+0  11099-3 0  9994
2 43188  97.5338 105.5105 0006753 260.1260  99.9211 15.16948411463695
S-NET C                 
1 43189U 18014K   26200.60504808  .00002382  00000+0  12431-3 0  9998
2 43189  97.5354 105.4763 0008164 251.7007 108.3338 15.16900273462223
SALSAT                  
1 46495U 20068K   26200.45326485  .00003827  00000+0  13372-3 0  9999
2 46495  97.8865 205.4942 0009671 177.8105 182.3178 15.30206359320291
OOV-CUBE (TUBSAT-30)    
1 60240U 24128F   26200.72484720  .00000867  00000+0  79050-4 0  9998
2 60240  61.9942 112.1057 0040527 141.0093 219.3932 15.02883931111000
LPNTSAT-001 (IOD-1)     
1 68408U 26065A   26199.90234535  .00001249  00000+0  63360-4 0  9990
2 68408  97.3975  79.7370 0014685 251.9820 107.9814 15.18678997 17078
CHUANG XIN 26 (CX-26)   
1 69972U 26158A   26200.61500191 -.00000085  00000+0  31568-4 0  9998
2 69972  49.9833 261.7658 0004930 314.6012  45.4498 14.25124094  1332
